start=new Date('2022-07-25T00:00:00.000Z').valueOf();
sats=[{"APOAPSIS":"540.869","COUNTRY_CODE":"US","OBJECT_NAME":"STARLINK-4033","ECCENTRICITY":"0.00013660","NORAD_CAT_ID":"52702","CLASSIFICATION_TYPE":"U","ELEMENT_SET_NO":"999","OBJECT_ID":"2022-053AY","EPHEMERIS_TYPE":"0","RA_OF_ASC_NODE":"331.7504","ARG_OF_PERICENTER":"49.6562","DECAY_DATE":null,"MEAN_ANOMALY":"13.6977","MEAN_MOTION_DOT":"0.00025765","REF_FRAME":"TEME","RCS_SIZE":"LARGE","PERIOD":"95.441","TLE_LINE2":"2 52702  53.2161 331.7504 0001366  49.6562  13.6977 15.08781440  1302","INCLINATION":"53.2161","MEAN_MOTION":"15.08781440","PERIAPSIS":"538.979","GP_ID":"208802024","TLE_LINE1":"1 52702U 22053AY  22205.91667824  .00025765  00000-0  16336-2 0  9998","SEMIMAJOR_AXIS":"6918.059","EPOCH":"2022-07-24T22:00:00.999936","LAUNCH_DATE":"2022-05-18","BSTAR":"0.00163360000000","SITE":"AFETR","REV_AT_EPOCH":"130","MEAN_ELEMENT_THEORY":"SGP4","CENTER_NAME":"EARTH","OBJECT_TYPE":"PAYLOAD","FILE":"3521124","MEAN_MOTION_DDOT":"0.0000000000000","TIME_SYSTEM":"UTC"},{"FILE":"3521038","MEAN_MOTION_DDOT":"0.0000000000000","TIME_SYSTEM":"UTC","SITE":"AFETR","REV_AT_EPOCH":"1094","MEAN_ELEMENT_THEORY":"SGP4","OBJECT_TYPE":"PAYLOAD","CENTER_NAME":"EARTH","GP_ID":"208775358","TLE_LINE1":"1 52703U 22053AZ  22205.91667824 -.00594971  00000-0 -45296-2 0  9998","SEMIMAJOR_AXIS":"6727.751","EPOCH":"2022-07-24T22:00:00.999936","BSTAR":"-0.00452960000000","LAUNCH_DATE":"2022-05-18","TLE_LINE2":"2 52703  53.2166 323.8323 0003197   7.0601 296.3218 15.73250545 10942","PERIOD":"91.530","INCLINATION":"53.2166","MEAN_MOTION":"15.73250545","PERIAPSIS":"347.465","ARG_OF_PERICENTER":"7.0601","DECAY_DATE":null,"MEAN_MOTION_DOT":"-0.00594971","MEAN_ANOMALY":"296.3218","RCS_SIZE":"LARGE","REF_FRAME":"TEME","ELEMENT_SET_NO":"999","CLASSIFICATION_TYPE":"U","OBJECT_ID":"2022-053AZ","EPHEMERIS_TYPE":"0","RA_OF_ASC_NODE":"323.8323","NORAD_CAT_ID":"52703","ECCENTRICITY":"0.00031970","APOAPSIS":"351.767","COUNTRY_CODE":"US","OBJECT_NAME":"STARLINK-4020"},{"PERIOD":"91.534","TLE_LINE2":"2 52704  53.2166 323.8364 0003112  13.5549 287.4717 15.73192647 10941","INCLINATION":"53.2166","MEAN_MOTION":"15.73192647","PERIAPSIS":"347.687","GP_ID":"208775220","SEMIMAJOR_AXIS":"6727.916","TLE_LINE1":"1 52704U 22053BA  22205.91667824 -.00546198  00000-0 -41447-2 0  9991","EPOCH":"2022-07-24T22:00:00.999936","LAUNCH_DATE":"2022-05-18","BSTAR":"-0.00414470000000","SITE":"AFETR","REV_AT_EPOCH":"1094","MEAN_ELEMENT_THEORY":"SGP4","CENTER_NAME":"EARTH","OBJECT_TYPE":"PAYLOAD","FILE":"3521038","MEAN_MOTION_DDOT":"0.0000000000000","TIME_SYSTEM":"UTC","APOAPSIS":"351.875","COUNTRY_CODE":"US","OBJECT_NAME":"STARLINK-3999","ECCENTRICITY":"0.00031120","NORAD_CAT_ID":"52704","CLASSIFICATION_TYPE":"U","ELEMENT_SET_NO":"999","OBJECT_ID":"2022-053BA","EPHEMERIS_TYPE":"0","RA_OF_ASC_NODE":"323.8364","ARG_OF_PERICENTER":"13.5549","DECAY_DATE":null,"MEAN_ANOMALY":"287.4717","MEAN_MOTION_DOT":"-0.00546198","REF_FRAME":"TEME","RCS_SIZE":"LARGE"},{"FILE":"3521038","MEAN_MOTION_DDOT":"0.0000000000000","TIME_SYSTEM":"UTC","SITE":"AFETR","REV_AT_EPOCH":"1094","MEAN_ELEMENT_THEORY":"SGP4","CENTER_NAME":"EARTH","OBJECT_TYPE":"PAYLOAD","GP_ID":"208775369","TLE_LINE1":"1 52705U 22053BB  22205.91667824 -.00501406  00000-0 -37922-2 0  9998","SEMIMAJOR_AXIS":"6728.047","EPOCH":"2022-07-24T22:00:00.999936","BSTAR":"-0.00379220000000","LAUNCH_DATE":"2022-05-18","TLE_LINE2":"2 52705  53.2166 323.8326 0002990  11.9054 290.9632 15.73146826 10949","PERIOD":"91.536","MEAN_MOTION":"15.73146826","INCLINATION":"53.2166","PERIAPSIS":"347.900","ARG_OF_PERICENTER":"11.9054","DECAY_DATE":null,"MEAN_MOTION_DOT":"-0.00501406","MEAN_ANOMALY":"290.9632","RCS_SIZE":"LARGE","REF_FRAME":"TEME","ELEMENT_SET_NO":"999","CLASSIFICATION_TYPE":"U","OBJECT_ID":"2022-053BB","EPHEMERIS_TYPE":"0","RA_OF_ASC_NODE":"323.8326","NORAD_CAT_ID":"52705","ECCENTRICITY":"0.00029900","APOAPSIS":"351.923","COUNTRY_CODE":"US","OBJECT_NAME":"STARLINK-3844"},{"MEAN_MOTION_DDOT":"0.0000000000000","FILE":"3521124","TIME_SYSTEM":"UTC","REV_AT_EPOCH":"130","SITE":"AFETR","CENTER_NAME":"EARTH","OBJECT_TYPE":"PAYLOAD","MEAN_ELEMENT_THEORY":"SGP4","SEMIMAJOR_AXIS":"6727.723","TLE_LINE1":"1 52706U 22053BC  22205.91667824 -.00622430  00000-0 -47524-2 0  9999","GP_ID":"208801659","BSTAR":"-0.00475240000000","LAUNCH_DATE":"2022-05-18","EPOCH":"2022-07-24T22:00:00.999936","INCLINATION":"53.2166","MEAN_MOTION":"15.73260295","TLE_LINE2":"2 52706  53.2166 323.8345 0003071   6.6939 295.4905 15.73260295  1305","PERIOD":"91.530","PERIAPSIS":"347.522","DECAY_DATE":null,"ARG_OF_PERICENTER":"6.6939","RCS_SIZE":"LARGE","REF_FRAME":"TEME","MEAN_MOTION_DOT":"-0.00622430","MEAN_ANOMALY":"295.4905","OBJECT_ID":"2022-053BC","ELEMENT_SET_NO":"999","CLASSIFICATION_TYPE":"U","RA_OF_ASC_NODE":"323.8345","EPHEMERIS_TYPE":"0","NORAD_CAT_ID":"52706","ECCENTRICITY":"0.00030710","COUNTRY_CODE":"US","APOAPSIS":"351.654","OBJECT_NAME":"STARLINK-3970"},{"ARG_OF_PERICENTER":"7.2495","DECAY_DATE":null,"MEAN_ANOMALY":"296.8458","MEAN_MOTION_DOT":"-0.00432982","REF_FRAME":"TEME","RCS_SIZE":"LARGE","CLASSIFICATION_TYPE":"U","ELEMENT_SET_NO":"999","OBJECT_ID":"2022-053BD","EPHEMERIS_TYPE":"0","RA_OF_ASC_NODE":"323.8306","ECCENTRICITY":"0.00035920","NORAD_CAT_ID":"52707","APOAPSIS":"352.465","COUNTRY_CODE":"US","OBJECT_NAME":"STARLINK-4007","FILE":"3521124","MEAN_MOTION_DDOT":"0.0000000000000","TIME_SYSTEM":"UTC","SITE":"AFETR","REV_AT_EPOCH":"130","MEAN_ELEMENT_THEORY":"SGP4","OBJECT_TYPE":"PAYLOAD","CENTER_NAME":"EARTH","GP_ID":"208801767","TLE_LINE1":"1 52707U 22053BD  22205.91667824 -.00432982  00000-0 -32540-2 0  9993","SEMIMAJOR_AXIS":"6728.184","EPOCH":"2022-07-24T22:00:00.999936","LAUNCH_DATE":"2022-05-18","BSTAR":"-0.00325400000000","PERIOD":"91.539","TLE_LINE2":"2 52707  53.2168 323.8306 0003592   7.2495 296.8458 15.73098821  1309","INCLINATION":"53.2168","MEAN_MOTION":"15.73098821","PERIAPSIS":"347.632"},{"PERIAPSIS":"346.861","TLE_LINE2":"2 52708  53.2167 323.8341 0003817   2.8169 301.6985 15.73316059  1303","PERIOD":"91.526","INCLINATION":"53.2167","MEAN_MOTION":"15.73316059","EPOCH":"2022-07-24T22:00:00.999936","BSTAR":"-0.00483950000000","LAUNCH_DATE":"2022-05-18","GP_ID":"208801909","SEMIMAJOR_AXIS":"6727.564","TLE_LINE1":"1 52708U 22053BE  22205.91667824 -.00634649  00000-0 -48395-2 0  9993","MEAN_ELEMENT_THEORY":"SGP4","CENTER_NAME":"EARTH","OBJECT_TYPE":"PAYLOAD","SITE":"AFETR","REV_AT_EPOCH":"130","TIME_SYSTEM":"UTC","FILE":"3521124","MEAN_MOTION_DDOT":"0.0000000000000","OBJECT_NAME":"STARLINK-3962","APOAPSIS":"351.997","COUNTRY_CODE":"US","NORAD_CAT_ID":"52708","ECCENTRICITY":"0.00038170","EPHEMERIS_TYPE":"0","RA_OF_ASC_NODE":"323.8341","ELEMENT_SET_NO":"999","CLASSIFICATION_TYPE":"U","OBJECT_ID":"2022-053BE","MEAN_MOTION_DOT":"-0.00634649","MEAN_ANOMALY":"301.6985","RCS_SIZE":"LARGE","REF_FRAME":"TEME","ARG_OF_PERICENTER":"2.8169","DECAY_DATE":null},{"OBJECT_NAME":"STARLINK-4091","COUNTRY_CODE":"US","APOAPSIS":"410.427","ECCENTRICITY":"0.00012490","NORAD_CAT_ID":"52830","RA_OF_ASC_NODE":"220.4246","EPHEMERIS_TYPE":"0","OBJECT_ID":"2022-062A","CLASSIFICATION_TYPE":"U","ELEMENT_SET_NO":"999","REF_FRAME":"TEME","RCS_SIZE":"LARGE","MEAN_ANOMALY":"64.5757","MEAN_MOTION_DOT":"-0.01115991","DECAY_DATE":null,"ARG_OF_PERICENTER":"67.6874","PERIAPSIS":"408.731","MEAN_MOTION":"15.52449479","INCLINATION":"53.2173","PERIOD":"92.757","TLE_LINE2":"2 52830  53.2173 220.4246 0001249  67.6874  64.5757 15.52449479  1303","LAUNCH_DATE":"2022-06-17","BSTAR":"-0.01985300000000","EPOCH":"2022-07-24T22:00:00.999936","TLE_LINE1":"1 52830U 22062A   22205.91667824 -.01115991  00000-0 -19853-1 0  9990","SEMIMAJOR_AXIS":"6787.714","GP_ID":"208801671","OBJECT_TYPE":"PAYLOAD","CENTER_NAME":"EARTH","MEAN_ELEMENT_THEORY":"SGP4","REV_AT_EPOCH":"130","SITE":"AFETR","TIME_SYSTEM":"UTC","MEAN_MOTION_DDOT":"0.0000000000000","FILE":"3521124"},{"REV_AT_EPOCH":"130","SITE":"AFETR","OBJECT_TYPE":"PAYLOAD","CENTER_NAME":"EARTH","MEAN_ELEMENT_THEORY":"SGP4","MEAN_MOTION_DDOT":"0.0000000000000","FILE":"3521124","TIME_SYSTEM":"UTC","INCLINATION":"53.2173","MEAN_MOTION":"15.52427466","PERIOD":"92.758","TLE_LINE2":"2 52831  53.2173 220.3904 0001298  60.9866  68.8299 15.52427466  1305","PERIAPSIS":"408.762","TLE_LINE1":"1 52831U 22062B   22205.91667824 -.01115910  00000-0 -19867-1 0  9997","SEMIMAJOR_AXIS":"6787.778","GP_ID":"208801779","LAUNCH_DATE":"2022-06-17","BSTAR":"-0.01986700000000","EPOCH":"2022-07-24T22:00:00.999936","OBJECT_ID":"2022-062B","CLASSIFICATION_TYPE":"U","ELEMENT_SET_NO":"999","RA_OF_ASC_NODE":"220.3904","EPHEMERIS_TYPE":"0","DECAY_DATE":null,"ARG_OF_PERICENTER":"60.9866","REF_FRAME":"TEME","RCS_SIZE":"LARGE","MEAN_ANOMALY":"68.8299","MEAN_MOTION_DOT":"-0.01115910","COUNTRY_CODE":"US","APOAPSIS":"410.524","OBJECT_NAME":"STARLINK-4089","ECCENTRICITY":"0.00012980","NORAD_CAT_ID":"52831"},{"RA_OF_ASC_NODE":"220.4015","EPHEMERIS_TYPE":"0","OBJECT_ID":"2022-062C","CLASSIFICATION_TYPE":"U","ELEMENT_SET_NO":"999","REF_FRAME":"TEME","RCS_SIZE":"LARGE","MEAN_ANOMALY":"86.9488","MEAN_MOTION_DOT":"-0.01115586","DECAY_DATE":null,"ARG_OF_PERICENTER":"43.6834","OBJECT_NAME":"STARLINK-4083","COUNTRY_CODE":"US","APOAPSIS":"410.671","ECCENTRICITY":"0.00015450","NORAD_CAT_ID":"52832","CENTER_NAME":"EARTH","OBJECT_TYPE":"PAYLOAD","MEAN_ELEMENT_THEORY":"SGP4","REV_AT_EPOCH":"130","SITE":"AFETR","TIME_SYSTEM":"UTC","MEAN_MOTION_DDOT":"0.0000000000000","FILE":"3521124","PERIAPSIS":"408.574","MEAN_MOTION":"15.52434583","INCLINATION":"53.2173","PERIOD":"92.758","TLE_LINE2":"2 52832  53.2173 220.4015 0001545  43.6834  86.9488 15.52434583  1307","LAUNCH_DATE":"2022-06-17","BSTAR":"-0.01985400000000","EPOCH":"2022-07-24T22:00:00.999936","TLE_LINE1":"1 52832U 22062C   22205.91667824 -.01115586  00000-0 -19854-1 0  9993","SEMIMAJOR_AXIS":"6787.757","GP_ID":"208801921"}];
